[{"OBJECT_NAME":"STARLINK-31809","OBJECT_ID":"2024-090P","EPOCH":"2026-03-09T07:33:02.274624","MEAN_MOTION":15.27574983,"ECCENTRICITY":0.00010799,"INCLINATION":43.0002,"RA_OF_ASC_NODE":178.6175,"ARG_OF_PERICENTER":298.3904,"MEAN_ANOMALY":61.6839,"EPHEMERIS_TYPE":0,"CLASSIFICATION_TYPE":"U","NORAD_CAT_ID":59743,"ELEMENT_SET_NO":999,"REV_AT_EPOCH":10346,"BSTAR":-2.2778375e-5,"MEAN_MOTION_DOT":-8.89e-6,"MEAN_MOTION_DDOT":0},{"OBJECT_NAME":"CZ-6A DEB","OBJECT_ID":"2024-140RA","EPOCH":"2026-03-09T01:51:18.259488","MEAN_MOTION":15.31763252,"ECCENTRICITY":0.00411794,"INCLINATION":89.1856,"RA_OF_ASC_NODE":296.0787,"ARG_OF_PERICENTER":96.6516,"MEAN_ANOMALY":263.9425,"EPHEMERIS_TYPE":0,"CLASSIFICATION_TYPE":"U","NORAD_CAT_ID":61156,"ELEMENT_SET_NO":999,"REV_AT_EPOCH":8391,"BSTAR":0.0079173326,"MEAN_MOTION_DOT":0.00256788,"MEAN_MOTION_DDOT":0}]
